YAOGAN-39 03C           
1 57990U 23152E   26068.78818632  .00007356  00000+0  36412-3 0  9997
2 57990  34.9896 195.9796 0010407 330.7235  29.2893 15.17057677135055
ELARASAT MMS-1          
1 64539U 25135M   26068.85958675  .00011239  00000+0  49586-3 0  9998
2 64539  97.4601 185.0311 0004021 148.9941 211.1534 15.21931569 39762
