[{"OBJECT_NAME":"YAOGAN-39 03C","OBJECT_ID":"2023-152E","EPOCH":"2026-03-09T18:54:59.298048","MEAN_MOTION":15.17057677,"ECCENTRICITY":0.00104072,"INCLINATION":34.9896,"RA_OF_ASC_NODE":195.9796,"ARG_OF_PERICENTER":330.7235,"MEAN_ANOMALY":29.2893,"EPHEMERIS_TYPE":0,"CLASSIFICATION_TYPE":"U","NORAD_CAT_ID":57990,"ELEMENT_SET_NO":999,"REV_AT_EPOCH":13505,"BSTAR":0.00036411545,"MEAN_MOTION_DOT":7.356e-5,"MEAN_MOTION_DDOT":0},{"OBJECT_NAME":"ELARASAT MMS-1","OBJECT_ID":"2025-135M","EPOCH":"2026-03-09T20:37:48.295200","MEAN_MOTION":15.21931569,"ECCENTRICITY":0.0004021,"INCLINATION":97.4601,"RA_OF_ASC_NODE":185.0311,"ARG_OF_PERICENTER":148.9941,"MEAN_ANOMALY":211.1534,"EPHEMERIS_TYPE":0,"CLASSIFICATION_TYPE":"U","NORAD_CAT_ID":64539,"ELEMENT_SET_NO":999,"REV_AT_EPOCH":3976,"BSTAR":0.00049586231,"MEAN_MOTION_DOT":0.00011239,"MEAN_MOTION_DDOT":0}]
